0 FENGYUN 1C DEB
1 30642U 99025ANZ 13282.19071574  .00007457  00000-0  21735-2 0  8318
2 30642 099.0280 054.9074 0086646 013.6462 082.4858 14.42277048349567
0 FENGYUN 1C DEB
1 30642U 99025ANZ 13283.65229782  .00007078  00000-0  20633-2 0  8322
2 30642 099.0275 056.4533 0086562 009.2373 111.4400 14.42296620349773
0 FENGYUN 1C DEB
1 30642U 99025ANZ 13286.14267742  .00005959  00000-0  17389-2 0  8349
2 30642 099.0271 059.0876 0086515 001.7092 082.4161 14.42319620350130
0 FENGYUN 1C DEB
1 30642U 99025ANZ 13287.18317755  .00005869  00000-0  17126-2 0  8354
2 30642 099.0272 060.1883 0086491 358.5617 085.1501 14.42329252350276
0 FENGYUN 1C DEB
1 30642U 99025ANZ 13288.35155166  .00009260  00000-0  26911-2 0  8362
2 30642 099.0275 061.4245 0086501 355.0351 031.9086 14.42348113350447
0 FENGYUN 1C DEB
1 30642U 99025ANZ 13289.82333515  .00009069  00000-0  26348-2 0  8373
2 30642 099.0279 062.9814 0086507 350.5919 114.2265 14.42368763350666
0 FENGYUN 1C DEB
1 30642U 99025ANZ 13291.33927476  .00007587  00000-0  22062-2 0  8380
2 30642 099.0283 064.5855 0086513 346.0029 065.9494 14.42387992350877
0 FENGYUN 1C DEB
1 30642U 99025ANZ 13292.88526094  .00007460  00000-0  21687-2 0  8395
2 30642 099.0287 066.2213 0086525 341.3588 173.7657 14.42408864351107
0 FENGYUN 1C DEB
1 30642U 99025ANZ 13294.11351831  .00008545  00000-0  24809-2 0  8404
2 30642 099.0288 067.5211 0086545 337.6503 071.8217 14.42423068351278
0 FENGYUN 1C DEB
1 30642U 99025ANZ 13295.15956484  .00008947  00000-0  25959-2 0  8418
2 30642 099.0287 068.6280 0086589 334.4973 103.7472 14.42435200351425
